1 44262U 19029AD  20029.58334491 -.00002245  00000-0 -11173-3 0  9990
2 44262  53.0037 125.2124 0001023  90.5635  12.6725 15.12133346 37944
1 44262U 19029AD  20029.91667824 +.00047877 +00000-0 +27448-2 0  9995
2 44262 053.0033 123.7000 0000953 091.3087 027.4972 15.12136159001761
1 44262U 19029AD  20030.25001157  .00309935  00000-0  17063-1 0  9992
2 44262  53.0033 122.1877 0001010  99.8278  34.5650 15.12078767 38049
1 44262U 19029AD  20030.50002315 -.00025249  00000-0 -14358-2 0  9997
2 44262  53.0029 121.0556 0000962  92.3460 323.7874 15.12147058 38087
1 44262U 19029AD  20031.41667824 -.00034467  00000-0 -19694-2 0  9990
2 44262  53.0025 116.8986 0001011  93.8298 275.0873 15.12134850 38212
1 44262U 19029AD  20031.58334491 +.00013753 +00000-0 +80513-3 0  9991
2 44262 053.0025 116.1436 0001051 086.1152 110.5861 15.12103178001795
1 44262U 19029AD  20031.91667824 +.00061897 +00000-0 +35393-2 0  9994
2 44262 053.0023 114.6309 0001011 088.2916 123.9498 15.12109285001791
1 44262U 19029AD  20032.00001157  .00171041  00000-0  96121-2 0  9995
2 44262  53.0024 114.2527 0001042  90.6779 215.4609 15.12071925 38305
1 44262U 19029AD  20032.25001157  .00205189  00000-0  11470-1 0  9996
2 44262  53.0023 113.1190 0001105  93.9892 133.8038 15.12079838 38344
1 44262U 19029AD  20032.58334491  .00023714  00000-0  13740-2 0  9997
2 44262  53.0024 111.6092 0001045  81.5996 161.7514 15.12102528 38397
1 44262U 19029AD  20033.58334491  .00029624  00000-0  17107-2 0  9995
2 44262  53.0027 107.0747 0001051  76.4348 213.5785 15.12104525 38549
1 44262U 19029AD  20033.91667824 +.00103081 +00000-0 +58495-2 0  9996
2 44262 053.0029 105.5618 0001009 079.8999 225.6682 15.12107012001761
1 44262U 19029AD  20034.00001157 +.00383478 +00000-0 +20912-1 0  9990
2 44262 053.0028 105.1835 0001033 083.0348 316.4360 15.12039146038617
1 44262U 19029AD  20034.91667824 +.00272907 +00000-0 +15105-1 0  9991
2 44262 053.0034 101.0274 0001077 075.9364 276.3269 15.12079595001795
1 44262U 19029AD  20035.08335648  .00634932  00000-0  34289-1 0  9990
2 44262  53.0033 100.2710 0001065  75.0605 105.0625 15.12000252 38772
1 44262U 19029AD  20035.25001157  .00158234  00000-0  89007-2 0  9999
2 44262  53.0037  99.5159 0001057  81.0434 286.7803 15.12108305 38796
1 44262U 19029AD  20035.58334491  .00036352  00000-0  20928-2 0  9998
2 44262  53.0039  98.0061 0001065  66.3623 317.0410 15.12113907 38841
1 44262U 19029AD  20036.25001157  .00083312  00000-0  47411-2 0  9997
2 44262  53.0042  94.9819 0001028  76.7033 337.8367 15.12129193 38957
1 44262U 19029AD  20036.50001157  .00009946  00000-0  58681-3 0  9998
2 44262  53.0043  93.8495 0001094  64.5942 271.6384 15.12131454 38983
1 44262U 19029AD  20036.91667824  .00261044  00000-0  14470-1 0  9997
2 44262  53.0045  91.9588 0001002  71.4013  14.3108 15.12087920 39055
1 44262U 19029AD  20037.16667824  .00322354  00000-0  17714-1 0  9991
2 44262  53.0046  90.8251 0001074  78.9505 288.4454 15.12080618 39086
1 44262U 19029AD  20037.50001157 +.00011426 +00000-0 +67140-3 0  9995
2 44262 053.0045 089.3154 0001077 062.0908 320.8879 15.12134640001800
1 44262U 19029AD  20037.83334491 -.00034504  00000-0 -19706-2 0  9999
2 44262  53.0044  87.8028 0000997  66.7056 331.8520 15.12152019 39195
1 44262U 19029AD  20037.91667824  .00248704  00000-0  13811-1 0  9994
2 44262  53.0045  87.4246 0000972  68.6619  63.8040 15.12087388 39200
1 44262U 19029AD  20038.25001157  .00077697  00000-0  44281-2 0  9990
2 44262  53.0045  85.9137 0001099  72.9866  75.0144 15.12113836 39258
1 44262U 19029AD  20038.58334491  .00042965  00000-0  24694-2 0  9992
2 44262  53.0041  84.4035 0001139  60.2892 103.2702 15.12095556 39307
1 44262U 19029AD  20038.91667824 +.00254176 +00000-0 +14113-1 0  9991
2 44262 053.0040 082.8904 0001060 069.9914 109.1267 15.12063414001765
1 44262U 19029AD  20039.25001157 -.00004819  00000-0 -25956-3 0  9998
2 44262  53.0040  81.3797 0001070  71.0699 123.5882 15.12130488 39405
1 44262U 19029AD  20039.58334491 +.00049443 +00000-0 +28363-2 0  9998
2 44262 053.0035 079.8692 0001129 059.5173 150.7087 15.12099585001767
1 44262U 19029AD  20039.83335648 -.00003805 +00000-0 -20133-3 0  9993
2 44262 053.0036 078.7342 0001027 068.4056 063.5468 15.12124063001803
1 44262U 19029AD  20040.25001157 -.00007022 +00000-0 -38610-3 0  9990
2 44262 053.0033 076.8454 0001076 069.4741 171.8586 15.12131998001763
1 44262U 19029AD  20040.83334491  .00341846  00000-0  18742-1 0  9999
2 44262  53.0029  74.1995 0001109  67.6393 110.9355 15.12062093 39644
1 44262U 19029AD  20041.16667824  .00114825  00000-0  65029-2 0  9991
2 44262  53.0029  72.6882 0001112  72.4942 121.6309 15.12109076 39696
1 44262U 19029AD  20041.50001157  .00039345  00000-0  22634-2 0  9998
2 44262  53.0028  71.1780 0001195  57.5216 152.1770 15.12103869 39746
1 44262U 19029AD  20041.91667824 +.00329364 +00000-0 +18096-1 0  9991
2 44262 053.0025 069.2866 0001180 071.8227 247.3395 15.12050734001900
1 44262U 19029AD  20042.25001157 -.00031842  00000-0 -18172-2 0  9999
2 44262  53.0026  67.7760 0001176  63.4217 271.2764 15.12139168 39858
1 44262U 19029AD  20042.58334491 +.00011680 +00000-0 +68618-3 0  9992
2 44262 053.0025 066.2649 0001229 054.0802 296.1852 15.12121848001761
1 44262U 19029AD  20042.91667824  .00225346  00000-0  12564-1 0  9991
2 44262  53.0027  64.7516 0001166  68.6621 297.1812 15.12066824 39950
1 44262U 19029AD  20043.25001157 -.00032736  00000-0 -18688-2 0  9995
2 44262  53.0029  63.2412 0001273  59.6423 321.7497 15.12142166 40005
1 44262U 19029AD  20043.58334491 +.00005830 +00000-0 +35128-3 0  9993
2 44262 053.0030 061.7300 0001321 051.5316 345.4290 15.12127920001778
1 44262U 19029AD  20043.91667824  .00182412  00000-0  10232-1 0  9998
2 44262  53.0033  60.2168 0001211  64.2965 348.2460 15.12077861 40115
1 44262U 19029AD  20044.25001157 -.00032298  00000-0 -18433-2 0  9997
2 44262  53.0036  58.7066 0001381  56.6501  11.4478 15.12144706 40162
1 44262U 19029AD  20044.58334491 -.00000560 +00000-0 -15038-4 0  9990
2 44262 053.0038 057.1953 0001427 050.3291 033.3409 15.12135816001762
1 44262U 19029AD  20044.91667824  .00309328  00000-0  17041-1 0  9991
2 44262  53.0041  55.6822 0001292  63.4748  35.7855 15.12058204 40260
1 44262U 19029AD  20045.25001157 -.00028821  00000-0 -16421-2 0  9990
2 44262  53.0043  54.1723 0001479  54.7003  60.1192 15.12146744 40319
1 44262U 19029AD  20045.58334491 -.00008024 +00000-0 -44354-3 0  9996
2 44262 053.0046 052.6609 0001521 050.2046 080.1901 15.12143967001764
1 44262U 19029AD  20045.91668981  .00098850  00000-0  56133-2 0  9998
2 44262  53.0049  51.1480 0001393  59.2324  86.8149 15.12107832 40416
1 44262U 19029AD  20046.25001157 -.00023815  00000-0 -13529-2 0  9995
2 44262  53.0050  49.6381 0001561  53.6685 107.8890 15.12147816 40463
1 44262U 19029AD  20046.58335648 -.00018085 +00000-0 -10223-2 0  9997
2 44262 053.0052 048.1265 0001585 050.8361 126.3632 15.12152858001814
1 44262U 19029AD  20046.91667824  .00139511  00000-0  78709-2 0  9997
2 44262  53.0054  46.6138 0001455  59.8168 132.9142 15.12105169 40565
1 44262U 19029AD  20047.25001157 -.00019223  00000-0 -10880-2 0  9991
2 44262  53.0054  45.1040 0001618  53.2985 155.0118 15.12148990 40611
1 44262U 19029AD  20047.58334491 -.00030087 +00000-0 -17148-2 0  9992
2 44262 053.0054 043.5923 0001599 051.1656 172.7259 15.12157481001763
1 44262U 19029AD  20047.91667824 +.00291991 +00000-0 +16130-1 0  9998
2 44262 053.0055 042.0796 0001387 059.5981 179.8692 15.12050130001812
1 44262U 19029AD  20048.58334491 -.00025164  00000-0 -14315-2 0  9996
2 44262  53.0053  39.0581 0001509  48.7601 221.7874 15.12129646 40814
1 44262U 19029AD  20048.91667824 +.00093960 +00000-0 +53430-2 0  9990
2 44262 053.0054 037.5455 0001404 057.9074 228.2008 15.12088314001766
1 44262U 19029AD  20049.50002315 -.00000405  00000-0 -61480-5 0  9995
2 44262  53.0050  34.9022 0001583  48.3609 175.0216 15.12118386 40956
1 44262U 19029AD  20049.58334491 -.00033491 +00000-0 -19129-2 0  9997
2 44262 053.0050 034.5239 0001539 050.0649 267.1388 15.12134284001761
1 44262U 19029AD  20050.25001157 -.00009268  00000-0 -51499-3 0  9995
2 44262  53.0049  31.5017 0001748  54.7119 293.6451 15.12147584 41064
1 44262U 19029AD  20050.58334491 -.00038897 +00000-0 -22237-2 0  9998
2 44262 053.0047 029.9894 0001701 054.9879 308.9636 15.12172301001774
1 44262U 19029AD  20050.91311651 +.00001745 +00000-0 +11717-3 0  9990
2 44262 053.0073 028.4945 0001587 060.5635 299.5514 15.12121212040362
1 44262U 19029AD  20050.91667824  .00080941  00000-0  46074-2 0  9994
2 44262  53.0048  28.4770 0001647  63.5244 316.0322 15.12135207 41166
1 44262U 19029AD  20051.25001157  .00008865  00000-0  52514-3 0  9995
2 44262  53.0046  26.9672 0001711  54.0917 341.0492 15.12120549 41217
1 44262U 19029AD  20051.58334491 -.00015945 +00000-0 -89941-3 0  9994
2 44262 053.0045 025.4547 0001659 054.2224 356.4737 15.12137525001776
1 44262U 19029AD  20051.83334491  .00286464  00000-0  15834-1 0  9994
2 44262  53.0044  24.3202 0001611  64.5912 267.7952 15.12057917 41309
1 44262U 19029AD  20051.91667824  .00017168  00000-0  99981-3 0  9992
2 44262  53.0047  23.9425 0001640  60.5899   5.6727 15.12122058 41326
1 44262U 19029AD  20052.58334491 -.00024939 +00000-0 -14180-2 0  9990
2 44262 053.0048 020.9202 0001753 054.9561 042.4366 15.12142612001765
1 44262U 19029AD  20052.91667824  .00052405  00000-0  30020-2 0  9994
2 44262  53.0050  19.4080 0001751  61.3974  51.5666 15.12122277 41474
1 44262U 19029AD  20053.25001157  .00020118  00000-0  11682-2 0  9992
2 44262  53.0051  17.8984 0001926  54.4157  74.1265 15.12122048 41528
1 44262U 19029AD  20053.58334491 -.00022900 +00000-0 -13001-2 0  9998
2 44262 053.0053 016.3857 0001853 055.5144 088.5937 15.12147916001768
1 44262U 19029AD  20053.91667824 +.00036327 +00000-0 +20902-2 0  9998
2 44262 053.0057 014.8737 0001873 061.0436 098.6407 15.12133960001768
1 44262U 19029AD  20054.25001157  .00034491  00000-0  19865-2 0  9993
2 44262  53.0058  13.3640 0002049  54.3386 120.9341 15.12123183 41677
